IRIDIUM 921 [-]         
1 24873U 97034E   24052.53546041  .00021862  00000+0  70242-3 0  9994
2 24873  86.3890 345.5091 0004586  29.7849 330.3660 15.32150261457282
IRIDIUM 26 [-]          
1 24903U 97043A   24052.63597431  .00000545  00000+0  18016-3 0  9994
2 24903  86.3976 312.6904 0001922  86.4808 273.6608 14.36216887387604
IRIDIUM 22 [-]          
1 24907U 97043E   24052.81091848  .00000514  00000+0  17317-3 0  9998
2 24907  86.3985 315.7613 0002147  84.1919 275.9522 14.35113658387709
DUMMY MASS 1 [-]        
1 24925U 97048A   24052.84246154  .00000751  00000+0  82659-4 0  9993
2 24925  86.3392 357.7310 0008945  61.7551 298.4575 14.86060765433869
DUMMY MASS 2 [-]        
1 24926U 97048B   24052.59083098  .00000751  00000+0  83094-4 0  9996
2 24926  86.3391 359.3684 0009939  70.1389 290.0906 14.85819675433371
IRIDIUM 29 [-]          
1 24944U 97051A   24052.85055893  .00000601  00000+0  20213-3 0  9998
2 24944  86.4010 345.6716 0002345  80.5021 279.6440 14.35568574384416
IRIDIUM 33 [-]          
1 24946U 97051C   24052.56063005  .00000438  00000+0  14904-3 0  9990
2 24946  86.3925 345.0542 0006934 195.1810 164.9179 14.34267073383693
IRIDIUM 28 [-]          
1 24948U 97051E   24052.51341457  .00000635  00000+0  20985-3 0  9992
2 24948  86.4015 343.6064 0001875  93.9413 266.1998 14.36516563384678
